[{"OBJECT_NAME":"WILDFIRE 8","OBJECT_ID":"2023-133M","EPOCH":"2026-03-09T12:22:22.023552","MEAN_MOTION":13.85412559,"ECCENTRICITY":0.00047302,"INCLINATION":80.9917,"RA_OF_ASC_NODE":102.7075,"ARG_OF_PERICENTER":283.6827,"MEAN_ANOMALY":76.3802,"EPHEMERIS_TYPE":0,"CLASSIFICATION_TYPE":"U","NORAD_CAT_ID":57768,"ELEMENT_SET_NO":999,"REV_AT_EPOCH":12723,"BSTAR":-0.00014989994,"MEAN_MOTION_DOT":-1.6e-6,"MEAN_MOTION_DDOT":0},{"OBJECT_NAME":"SL-14 R\/B","OBJECT_ID":"1982-025B","EPOCH":"2026-03-09T19:54:10.786464","MEAN_MOTION":13.84786717,"ECCENTRICITY":0.00143585,"INCLINATION":82.5433,"RA_OF_ASC_NODE":186.149,"ARG_OF_PERICENTER":191.7911,"MEAN_ANOMALY":282.0541,"EPHEMERIS_TYPE":0,"CLASSIFICATION_TYPE":"U","NORAD_CAT_ID":13114,"ELEMENT_SET_NO":999,"REV_AT_EPOCH":22128,"BSTAR":3.5016671e-5,"MEAN_MOTION_DOT":5.4e-7,"MEAN_MOTION_DDOT":0}]
